[{"OBJECT_NAME":"IRIDIUM 33 DEB","OBJECT_ID":"1997-051BV","EPOCH":"2026-03-28T10:28:40.004832","MEAN_MOTION":14.91312864,"ECCENTRICITY":0.00018344,"INCLINATION":86.251,"RA_OF_ASC_NODE":239.4158,"ARG_OF_PERICENTER":86.7231,"MEAN_ANOMALY":333.8069,"EPHEMERIS_TYPE":0,"CLASSIFICATION_TYPE":"U","NORAD_CAT_ID":33960,"ELEMENT_SET_NO":999,"REV_AT_EPOCH":90439,"BSTAR":0.0030092647,"MEAN_MOTION_DOT":0.00030093,"MEAN_MOTION_DDOT":0},{"OBJECT_NAME":"IRIDIUM 33 DEB","OBJECT_ID":"1997-051CB","EPOCH":"2026-03-28T12:14:23.705376","MEAN_MOTION":14.50126107,"ECCENTRICITY":0.0006147,"INCLINATION":86.3975,"RA_OF_ASC_NODE":0.6264,"ARG_OF_PERICENTER":193.5282,"MEAN_ANOMALY":344.7409,"EPHEMERIS_TYPE":0,"CLASSIFICATION_TYPE":"U","NORAD_CAT_ID":33966,"ELEMENT_SET_NO":999,"REV_AT_EPOCH":89974,"BSTAR":0.0005134,"MEAN_MOTION_DOT":2.013e-5,"MEAN_MOTION_DDOT":0},{"OBJECT_NAME":"IRIDIUM 33 DEB","OBJECT_ID":"1997-051CE","EPOCH":"2026-03-28T14:33:10.129536","MEAN_MOTION":14.50084601,"ECCENTRICITY":0.00094159,"INCLINATION":86.3475,"RA_OF_ASC_NODE":331.8157,"ARG_OF_PERICENTER":107.7752,"MEAN_ANOMALY":252.4481,"EPHEMERIS_TYPE":0,"CLASSIFICATION_TYPE":"U","NORAD_CAT_ID":34071,"ELEMENT_SET_NO":999,"REV_AT_EPOCH":89868,"BSTAR":0.00052474699,"MEAN_MOTION_DOT":2.056e-5,"MEAN_MOTION_DDOT":0},{"OBJECT_NAME":"IRIDIUM 33 DEB","OBJECT_ID":"1997-051CL","EPOCH":"2026-03-28T12:44:59.808192","MEAN_MOTION":14.6695987,"ECCENTRICITY":0.0011514,"INCLINATION":86.3895,"RA_OF_ASC_NODE":4.8288,"ARG_OF_PERICENTER":35.6503,"MEAN_ANOMALY":139.9057,"EPHEMERIS_TYPE":0,"CLASSIFICATION_TYPE":"U","NORAD_CAT_ID":34077,"ELEMENT_SET_NO":999,"REV_AT_EPOCH":89882,"BSTAR":0.0019813,"MEAN_MOTION_DOT":0.00011129,"MEAN_MOTION_DDOT":0},{"OBJECT_NAME":"IRIDIUM 33 DEB","OBJECT_ID":"1997-051CN","EPOCH":"2026-03-28T09:48:59.843808","MEAN_MOTION":14.87591193,"ECCENTRICITY":0.00064263,"INCLINATION":86.3764,"RA_OF_ASC_NODE":320.4561,"ARG_OF_PERICENTER":351.8615,"MEAN_ANOMALY":189.8737,"EPHEMERIS_TYPE":0,"CLASSIFICATION_TYPE":"U","NORAD_CAT_ID":34079,"ELEMENT_SET_NO":999,"REV_AT_EPOCH":90546,"BSTAR":0.0015390154,"MEAN_MOTION_DOT":0.00014023,"MEAN_MOTION_DDOT":0},{"OBJECT_NAME":"IRIDIUM 33 DEB","OBJECT_ID":"1997-051CX","EPOCH":"2026-03-28T18:24:37.198944","MEAN_MOTION":14.99390061,"ECCENTRICITY":0.0004141,"INCLINATION":86.3849,"RA_OF_ASC_NODE":341.7181,"ARG_OF_PERICENTER":122.0173,"MEAN_ANOMALY":304.4212,"EPHEMERIS_TYPE":0,"CLASSIFICATION_TYPE":"U","NORAD_CAT_ID":34088,"ELEMENT_SET_NO":999,"REV_AT_EPOCH":90326,"BSTAR":0.0029341,"MEAN_MOTION_DOT":0.0003607,"MEAN_MOTION_DDOT":0},{"OBJECT_NAME":"IRIDIUM 33 DEB","OBJECT_ID":"1997-051DA","EPOCH":"2026-03-28T19:03:13.932864","MEAN_MOTION":14.91432613,"ECCENTRICITY":0.0025581,"INCLINATION":86.3468,"RA_OF_ASC_NODE":17.9066,"ARG_OF_PERICENTER":287.8442,"MEAN_ANOMALY":71.9995,"EPHEMERIS_TYPE":0,"CLASSIFICATION_TYPE":"U","NORAD_CAT_ID":34091,"ELEMENT_SET_NO":999,"REV_AT_EPOCH":89442,"BSTAR":0.0042713,"MEAN_MOTION_DOT":0.0004317,"MEAN_MOTION_DDOT":0},{"OBJECT_NAME":"IRIDIUM 33 DEB","OBJECT_ID":"1997-051DG","EPOCH":"2026-03-28T01:45:24.740064","MEAN_MOTION":14.35670133,"ECCENTRICITY":0.00827737,"INCLINATION":86.199,"RA_OF_ASC_NODE":314.8962,"ARG_OF_PERICENTER":18.0872,"MEAN_ANOMALY":342.3237,"EPHEMERIS_TYPE":0,"CLASSIFICATION_TYPE":"U","NORAD_CAT_ID":34097,"ELEMENT_SET_NO":999,"REV_AT_EPOCH":88630,"BSTAR":0.00097501821,"MEAN_MOTION_DOT":2.944e-5,"MEAN_MOTION_DDOT":0},{"OBJECT_NAME":"IRIDIUM 33 DEB","OBJECT_ID":"1997-051DY","EPOCH":"2026-03-28T12:16:57.952704","MEAN_MOTION":14.43201596,"ECCENTRICITY":0.0054133,"INCLINATION":86.2065,"RA_OF_ASC_NODE":285.3809,"ARG_OF_PERICENTER":104.6665,"MEAN_ANOMALY":256.0546,"EPHEMERIS_TYPE":0,"CLASSIFICATION_TYPE":"U","NORAD_CAT_ID":34145,"ELEMENT_SET_NO":999,"REV_AT_EPOCH":89163,"BSTAR":0.00095854,"MEAN_MOTION_DOT":3.299e-5,"MEAN_MOTION_DDOT":0},{"OBJECT_NAME":"IRIDIUM 33 DEB","OBJECT_ID":"1997-051DZ","EPOCH":"2026-03-28T13:58:11.475264","MEAN_MOTION":14.4981612,"ECCENTRICITY":0.00249261,"INCLINATION":86.2806,"RA_OF_ASC_NODE":303.0299,"ARG_OF_PERICENTER":231.0187,"MEAN_ANOMALY":149.8552,"EPHEMERIS_TYPE":0,"CLASSIFICATION_TYPE":"U","NORAD_CAT_ID":34146,"ELEMENT_SET_NO":999,"REV_AT_EPOCH":89640,"BSTAR":0.00056227848,"MEAN_MOTION_DOT":2.196e-5,"MEAN_MOTION_DDOT":0},{"OBJECT_NAME":"IRIDIUM 33 DEB","OBJECT_ID":"1997-051EN","EPOCH":"2026-03-28T00:54:50.001408","MEAN_MOTION":14.38803679,"ECCENTRICITY":0.00263176,"INCLINATION":86.3563,"RA_OF_ASC_NODE":3.3423,"ARG_OF_PERICENTER":305.2984,"MEAN_ANOMALY":54.5753,"EPHEMERIS_TYPE":0,"CLASSIFICATION_TYPE":"U","NORAD_CAT_ID":34159,"ELEMENT_SET_NO":999,"REV_AT_EPOCH":89473,"BSTAR":0.0003687291,"MEAN_MOTION_DOT":1.156e-5,"MEAN_MOTION_DDOT":0},{"OBJECT_NAME":"IRIDIUM 33 DEB","OBJECT_ID":"1997-051ES","EPOCH":"2026-03-28T09:27:03.225312","MEAN_MOTION":14.45733753,"ECCENTRICITY":0.00219682,"INCLINATION":86.327,"RA_OF_ASC_NODE":316.9763,"ARG_OF_PERICENTER":143.6391,"MEAN_ANOMALY":36.3225,"EPHEMERIS_TYPE":0,"CLASSIFICATION_TYPE":"U","NORAD_CAT_ID":34350,"ELEMENT_SET_NO":999,"REV_AT_EPOCH":89819,"BSTAR":0.000302898,"MEAN_MOTION_DOT":1.096e-5,"MEAN_MOTION_DDOT":0},{"OBJECT_NAME":"IRIDIUM 33 DEB","OBJECT_ID":"1997-051FJ","EPOCH":"2026-03-28T19:44:38.888448","MEAN_MOTION":14.55186915,"ECCENTRICITY":0.0021258,"INCLINATION":86.3735,"RA_OF_ASC_NODE":3.1344,"ARG_OF_PERICENTER":137.6666,"MEAN_ANOMALY":288.0158,"EPHEMERIS_TYPE":0,"CLASSIFICATION_TYPE":"U","NORAD_CAT_ID":34366,"ELEMENT_SET_NO":999,"REV_AT_EPOCH":89724,"BSTAR":0.0010467,"MEAN_MOTION_DOT":4.558e-5,"MEAN_MOTION_DDOT":0},{"OBJECT_NAME":"IRIDIUM 33 DEB","OBJECT_ID":"1997-051FT","EPOCH":"2026-03-28T14:55:00.288768","MEAN_MOTION":14.18214915,"ECCENTRICITY":0.0103447,"INCLINATION":86.4316,"RA_OF_ASC_NODE":140.0485,"ARG_OF_PERICENTER":149.7054,"MEAN_ANOMALY":2.9588,"EPHEMERIS_TYPE":0,"CLASSIFICATION_TYPE":"U","NORAD_CAT_ID":34375,"ELEMENT_SET_NO":999,"REV_AT_EPOCH":88212,"BSTAR":0.00037511,"MEAN_MOTION_DOT":8.32e-6,"MEAN_MOTION_DDOT":0},{"OBJECT_NAME":"IRIDIUM 33 DEB","OBJECT_ID":"1997-051FU","EPOCH":"2026-03-28T08:50:57.702624","MEAN_MOTION":14.64816677,"ECCENTRICITY":0.00248705,"INCLINATION":86.2965,"RA_OF_ASC_NODE":318.9749,"ARG_OF_PERICENTER":167.1268,"MEAN_ANOMALY":193.0585,"EPHEMERIS_TYPE":0,"CLASSIFICATION_TYPE":"U","NORAD_CAT_ID":34376,"ELEMENT_SET_NO":999,"REV_AT_EPOCH":89552,"BSTAR":0.0013544394,"MEAN_MOTION_DOT":7.282e-5,"MEAN_MOTION_DDOT":0},{"OBJECT_NAME":"IRIDIUM 33 DEB","OBJECT_ID":"1997-051GB","EPOCH":"2026-03-28T14:58:12.317952","MEAN_MOTION":15.03308948,"ECCENTRICITY":0.00111877,"INCLINATION":86.3916,"RA_OF_ASC_NODE":322.8686,"ARG_OF_PERICENTER":87.8407,"MEAN_ANOMALY":333.1845,"EPHEMERIS_TYPE":0,"CLASSIFICATION_TYPE":"U","NORAD_CAT_ID":34486,"ELEMENT_SET_NO":999,"REV_AT_EPOCH":90573,"BSTAR":0.0023192605,"MEAN_MOTION_DOT":0.00031618,"MEAN_MOTION_DDOT":0}]
