IRIDIUM 33 DEB          
1 33960U 97051BV  26087.43657413  .00030093  00000+0  30093-2 0  9990
2 33960  86.2510 239.4158 0001834  86.7231 333.8069 14.91312864904396
IRIDIUM 33 DEB          
1 33966U 97051CB  26087.50999659  .00002013  00000+0  51340-3 0  9995
2 33966  86.3975   0.6264 0006147 193.5282 344.7409 14.50126107899748
IRIDIUM 33 DEB          
1 34071U 97051CE  26087.60636724  .00002056  00000+0  52475-3 0  9992
2 34071  86.3475 331.8157 0009415 107.7752 252.4481 14.50084601898680
IRIDIUM 33 DEB          
1 34077U 97051CL  26087.53124778  .00011129  00000+0  19813-2 0  9990
2 34077  86.3895   4.8288 0011514  35.6503 139.9057 14.66959870898820
IRIDIUM 33 DEB          
1 34079U 97051CN  26087.40902597  .00014023  00000+0  15390-2 0  9993
2 34079  86.3764 320.4561 0006426 351.8615 189.8737 14.87591193905462
IRIDIUM 33 DEB          
1 34088U 97051CX  26087.76709721  .00036070  00000+0  29341-2 0  9993
2 34088  86.3849 341.7181 0004141 122.0173 304.4212 14.99390061903262
IRIDIUM 33 DEB          
1 34091U 97051DA  26087.79391126  .00043170  00000+0  42713-2 0  9993
2 34091  86.3468  17.9066 0025581 287.8442  71.9995 14.91432613894420
IRIDIUM 33 DEB          
1 34097U 97051DG  26087.07320301  .00002944  00000+0  97502-3 0  9998
2 34097  86.1990 314.8962 0082773  18.0872 342.3237 14.35670133886306
IRIDIUM 33 DEB          
1 34145U 97051DY  26087.51178186  .00003299  00000+0  95854-3 0  9995
2 34145  86.2065 285.3809 0054133 104.6665 256.0546 14.43201596891635
IRIDIUM 33 DEB          
1 34146U 97051DZ  26087.58207726  .00002196  00000+0  56228-3 0  9993
2 34146  86.2806 303.0299 0024926 231.0187 149.8552 14.49816120896408
IRIDIUM 33 DEB          
1 34159U 97051EN  26087.03807872  .00001156  00000+0  36873-3 0  9994
2 34159  86.3563   3.3423 0026317 305.2984  54.5753 14.38803679894739
IRIDIUM 33 DEB          
1 34350U 97051ES  26087.39378733  .00001096  00000+0  30290-3 0  9995
2 34350  86.3270 316.9763 0021968 143.6391  36.3225 14.45733753898199
IRIDIUM 33 DEB          
1 34366U 97051FJ  26087.82267232  .00004558  00000+0  10467-2 0  9990
2 34366  86.3735   3.1344 0021258 137.6666 288.0158 14.55186915897241
IRIDIUM 33 DEB          
1 34375U 97051FT  26087.62153112  .00000832  00000+0  37511-3 0  9990
2 34375  86.4316 140.0485 0103447 149.7054   2.9588 14.18214915882122
IRIDIUM 33 DEB          
1 34376U 97051FU  26087.36872341  .00007282  00000+0  13544-2 0  9999
2 34376  86.2965 318.9749 0024870 167.1268 193.0585 14.64816677895524
IRIDIUM 33 DEB          
1 34486U 97051GB  26087.62375368  .00031618  00000+0  23193-2 0  9998
2 34486  86.3916 322.8686 0011187  87.8407 333.1845 15.03308948905739
